OBJECT_NAME,OBJECT_ID,EPOCH,MEAN_MOTION,ECCENTRICITY,INCLINATION,RA_OF_ASC_NODE,ARG_OF_PERICENTER,MEAN_ANOMALY,EPHEMERIS_TYPE,CLASSIFICATION_TYPE,NORAD_CAT_ID,ELEMENT_SET_NO,REV_AT_EPOCH,BSTAR,MEAN_MOTION_DOT,MEAN_MOTION_DDOT
ONEWEB-0399,2021-132L,2026-06-15T03:18:04.735584,13.11414330,.0002164,87.8895,21.4766,75.3417,284.7951,0,U,50479,999,21533,.90991E-3,.335E-5,0
ONEWEB-0400,2021-132M,2026-06-15T04:30:18.119808,13.18685336,.0001924,87.9168,335.8423,97.6226,262.5124,0,U,50480,999,22134,.20536E-5,.14E-6,0
ONEWEB-0401,2021-132N,2026-06-15T00:08:03.992064,13.18685220,.0001638,87.9171,335.8756,87.4792,272.6527,0,U,50481,999,22132,-.83955E-4,-.2E-6,0
ONEWEB-0402,2021-132P,2026-06-15T01:03:55.598400,13.18685369,.0001556,87.9168,335.8573,79.3160,280.8147,0,U,50482,999,22135,.20635E-4,.21E-6,0
ONEWEB-0403,2021-132Q,2026-06-14T22:01:48.432288,13.18684835,.0001982,87.9168,335.9066,90.2196,269.9163,0,U,50483,999,22129,.8641E-4,.47E-6,0
ONEWEB-0404,2021-132R,2026-06-15T02:51:13.581216,13.11418222,.0002151,87.8890,21.4789,83.4056,276.7317,0,U,50484,999,21542,.12856E-2,.468E-5,0
ONEWEB-0405,2021-132S,2026-06-15T00:10:30.248256,13.18687061,.0001982,87.9172,335.8734,105.5309,254.6042,0,U,50485,999,22170,-.19931E-3,-.66E-6,0
ONEWEB-0406,2021-132T,2026-06-14T23:58:21.396000,13.18685144,.0002347,87.9164,335.8916,86.5786,273.5615,0,U,50486,999,22133,-.11692E-3,-.33E-6,0
ONEWEB-0407,2021-132U,2026-06-14T23:48:40.010400,13.18677586,.0001562,87.9168,335.8849,95.2920,264.8391,0,U,50487,999,22127,-.26115E-2,-.1016E-4,0
ONEWEB-0409,2021-132V,2026-06-15T02:48:46.308096,13.11419204,.0002118,87.8894,21.4673,86.4994,273.6377,0,U,50488,999,21531,.11504E-2,.42E-5,0
ONEWEB-0412,2021-132W,2026-06-14T23:31:38.574048,13.18684764,.0001651,87.9166,335.8959,84.1448,275.9873,0,U,50489,999,22136,-.80254E-4,-.19E-6,0
ONEWEB-0413,2021-132X,2026-06-14T23:38:57.168960,13.18676926,.0001681,87.9156,335.8939,87.8081,272.3243,0,U,50490,999,22130,.35319E-2,.1405E-4,0
ONEWEB-0414,2021-132Y,2026-06-14T23:17:05.002656,13.18685012,.0001837,87.9169,335.8783,86.5007,273.6335,0,U,50491,999,22133,.80502E-4,.45E-6,0
ONEWEB-0417,2021-132Z,2026-06-14T23:29:13.276032,13.18685294,.0002092,87.9160,335.8965,91.0652,269.0720,0,U,50492,999,22131,-.19131E-3,-.63E-6,0
ONEWEB-0418,2021-132AA,2026-06-14T23:43:34.536288,13.18697594,.0002275,87.9172,335.8940,88.0449,272.0943,0,U,50493,999,22137,-.6685E-2,-.2622E-4,0
ONEWEB-0419,2021-132AB,2026-06-15T00:10:19.474176,13.18665807,.0002099,87.9169,335.8897,96.8823,263.2548,0,U,50494,999,22129,-.11154E-3,-.31E-6,0
ONEWEB-0420,2021-132AC,2026-06-14T23:19:30.307584,13.18685438,.0001669,87.9160,335.9000,95.4058,264.7265,0,U,50495,999,22128,.12238E-3,.61E-6,0
ONEWEB-0421,2021-132AD,2026-06-15T04:37:34.799232,13.18684705,.0001826,87.9166,335.8535,80.7715,279.3624,0,U,50496,999,22135,-.24282E-4,.3E-7,0
ONEWEB-0424,2021-132AE,2026-06-15T00:03:12.811968,13.18685244,.0002037,87.9168,335.8894,100.7288,259.4073,0,U,50497,999,22135,-.76131E-6,.13E-6,0
ONEWEB-0426,2021-132AF,2026-06-15T04:31:29.904384,13.18689126,.0002318,87.9168,335.8435,77.5548,282.5843,0,U,50498,999,22132,.12911E-4,.18E-6,0
ONEWEB-0427,2021-132AG,2026-06-15T00:00:47.162304,13.18685265,.0002031,87.9171,335.8695,89.7079,270.4286,0,U,50499,999,22132,-.71224E-5,.1E-6,0
ONEWEB-0429,2021-132AH,2026-06-14T23:41:21.711840,13.18685260,.0001725,87.9161,335.8969,93.5722,266.5607,0,U,50500,999,22129,-.23246E-3,-.79E-6,0
ONEWEB-0430,2021-132AJ,2026-06-14T23:24:21.635424,13.18686627,.0001771,87.9163,335.8976,100.6268,259.5063,0,U,50501,999,22133,-.24325E-3,-.83E-6,0
ONEWEB-0432,2021-132AK,2026-06-15T00:23:04.808832,13.17155013,.0002129,87.9169,335.8659,108.9851,251.1511,0,U,50502,999,22129,-.15383E-3,-.46E-6,0
ONEWEB-0440,2021-132AL,2026-06-14T23:53:29.822784,13.18685397,.0001578,87.9170,335.8894,84.9530,275.1782,0,U,50503,999,22128,-.32192E-4,0,0
ONEWEB-0450,2021-132AM,2026-06-14T23:43:59.604384,13.18685429,.0001658,87.9159,335.8962,95.9557,264.1764,0,U,50504,999,22131,.1246E-4,.18E-6,0
ONEWEB-0410,2022-012A,2026-06-15T02:11:08.202624,13.17648541,.0003077,87.9145,6.2738,75.6765,284.4708,0,U,51622,999,21342,-.50435E-4,-.7E-7,0
ONEWEB-0411,2022-012B,2026-06-15T04:19:48.362304,13.10370014,.0001666,87.8839,36.6663,100.9411,259.1904,0,U,51623,999,20902,.93612E-3,.339E-5,0
ONEWEB-0415,2022-012C,2026-06-15T04:15:02.066400,13.10370674,.0001814,87.8835,36.6660,90.7707,269.3628,0,U,51624,999,20902,.14728E-2,.527E-5,0
ONEWEB-0416,2022-012D,2026-06-15T02:41:48.259104,13.10370047,.0002065,87.8829,36.6969,94.3978,265.7385,0,U,51625,999,20905,-.30608E-3,-.94E-6,0
ONEWEB-0422,2022-012E,2026-06-15T02:25:43.387104,13.17649255,.0001229,87.9142,6.2731,84.2081,275.9190,0,U,51626,999,21353,-.27043E-3,-.92E-6,0
