ONEWEB-0399             
1 50479U 21132L   26166.13755481  .00000335  00000+0  90991-3 0  9990
2 50479  87.8895  21.4766 0002164  75.3417 284.7951 13.11414330215339
ONEWEB-0400             
1 50480U 21132M   26166.18770972  .00000014  00000+0  20536-5 0  9993
2 50480  87.9168 335.8423 0001924  97.6226 262.5124 13.18685336221342
ONEWEB-0401             
1 50481U 21132N   26166.00560176 -.00000020  00000+0 -83955-4 0  9990
2 50481  87.9171 335.8756 0001638  87.4792 272.6527 13.18685220221322
ONEWEB-0402             
1 50482U 21132P   26166.04439350  .00000021  00000+0  20635-4 0  9999
2 50482  87.9168 335.8573 0001556  79.3160 280.8147 13.18685369221350
ONEWEB-0403             
1 50483U 21132Q   26165.91792167  .00000047  00000+0  86410-4 0  9994
2 50483  87.9168 335.9066 0001982  90.2196 269.9163 13.18684835221299
ONEWEB-0404             
1 50484U 21132R   26166.11890719  .00000468  00000+0  12856-2 0  9998
2 50484  87.8890  21.4789 0002151  83.4056 276.7317 13.11418222215421
ONEWEB-0405             
1 50485U 21132S   26166.00729454 -.00000066  00000+0 -19931-3 0  9992
2 50485  87.9172 335.8734 0001982 105.5309 254.6042 13.18687061221700
ONEWEB-0406             
1 50486U 21132T   26165.99885875 -.00000033  00000+0 -11692-3 0  9990
2 50486  87.9164 335.8916 0002347  86.5786 273.5615 13.18685144221332
ONEWEB-0407             
1 50487U 21132U   26165.99212975 -.00001016  00000+0 -26115-2 0  9993
2 50487  87.9168 335.8849 0001562  95.2920 264.8391 13.18677586221275
ONEWEB-0409             
1 50488U 21132V   26166.11720264  .00000420  00000+0  11504-2 0  9996
2 50488  87.8894  21.4673 0002118  86.4994 273.6377 13.11419204215319
ONEWEB-0412             
1 50489U 21132W   26165.98030757 -.00000019  00000+0 -80254-4 0  9998
2 50489  87.9166 335.8959 0001651  84.1448 275.9873 13.18684764221362
ONEWEB-0413             
1 50490U 21132X   26165.98538390  .00001405  00000+0  35319-2 0  9994
2 50490  87.9156 335.8939 0001681  87.8081 272.3243 13.18676926221304
ONEWEB-0414             
1 50491U 21132Y   26165.97019679  .00000045  00000+0  80502-4 0  9993
2 50491  87.9169 335.8783 0001837  86.5007 273.6335 13.18685012221338
ONEWEB-0417             
1 50492U 21132Z   26165.97862588 -.00000063  00000+0 -19131-3 0  9990
2 50492  87.9160 335.8965 0002092  91.0652 269.0720 13.18685294221310
ONEWEB-0418             
1 50493U 21132AA  26165.98859417 -.00002622  00000+0 -66850-2 0  9991
2 50493  87.9172 335.8940 0002275  88.0449 272.0943 13.18697594221373
ONEWEB-0419             
1 50494U 21132AB  26166.00716984 -.00000031  00000+0 -11154-3 0  9997
2 50494  87.9169 335.8897 0002099  96.8823 263.2548 13.18665807221294
ONEWEB-0420             
1 50495U 21132AC  26165.97187856  .00000061  00000+0  12238-3 0  9998
2 50495  87.9160 335.9000 0001669  95.4058 264.7265 13.18685438221283
ONEWEB-0421             
1 50496U 21132AD  26166.19276388  .00000003  00000+0 -24282-4 0  9993
2 50496  87.9166 335.8535 0001826  80.7715 279.3624 13.18684705221359
ONEWEB-0424             
1 50497U 21132AE  26166.00223162  .00000013  00000+0 -76131-6 0  9999
2 50497  87.9168 335.8894 0002037 100.7288 259.4073 13.18685244221359
ONEWEB-0426             
1 50498U 21132AF  26166.18854056  .00000018  00000+0  12911-4 0  9999
2 50498  87.9168 335.8435 0002318  77.5548 282.5843 13.18689126221325
ONEWEB-0427             
1 50499U 21132AG  26166.00054586  .00000010  00000+0 -71224-5 0  9997
2 50499  87.9171 335.8695 0002031  89.7079 270.4286 13.18685265221321
ONEWEB-0429             
1 50500U 21132AH  26165.98705685 -.00000079  00000+0 -23246-3 0  9994
2 50500  87.9161 335.8969 0001725  93.5722 266.5607 13.18685260221298
ONEWEB-0430             
1 50501U 21132AJ  26165.97525041 -.00000083  00000+0 -24325-3 0  9994
2 50501  87.9163 335.8976 0001771 100.6268 259.5063 13.18686627221336
ONEWEB-0432             
1 50502U 21132AK  26166.01602788 -.00000046  00000+0 -15383-3 0  9998
2 50502  87.9169 335.8659 0002129 108.9851 251.1511 13.17155013221298
ONEWEB-0440             
1 50503U 21132AL  26165.99548406  .00000000  00000+0 -32192-4 0  9998
2 50503  87.9170 335.8894 0001578  84.9530 275.1782 13.18685397221285
ONEWEB-0450             
1 50504U 21132AM  26165.98888431  .00000018  00000+0  12460-4 0  9997
2 50504  87.9159 335.8962 0001658  95.9557 264.1764 13.18685429221317
ONEWEB-0410             
1 51622U 22012A   26166.09106716 -.00000007  00000+0 -50435-4 0  9993
2 51622  87.9145   6.2738 0003077  75.6765 284.4708 13.17648541213426
ONEWEB-0411             
1 51623U 22012B   26166.18042086  .00000339  00000+0  93612-3 0  9992
2 51623  87.8839  36.6663 0001666 100.9411 259.1904 13.10370014209020
ONEWEB-0415             
1 51624U 22012C   26166.17710725  .00000527  00000+0  14728-2 0  9993
2 51624  87.8835  36.6660 0001814  90.7707 269.3628 13.10370674209021
ONEWEB-0416             
1 51625U 22012D   26166.11236411 -.00000094  00000+0 -30608-3 0  9990
2 51625  87.8829  36.6969 0002065  94.3978 265.7385 13.10370047209053
ONEWEB-0422             
1 51626U 22012E   26166.10119661 -.00000092  00000+0 -27043-3 0  9994
2 51626  87.9142   6.2731 0001229  84.2081 275.9190 13.17649255213539
